{
  "norad_id": 65398,
  "name": "STARLINK-34931",
  "history": [
    {
      "epoch": "2026-04-11T15:12:24.475104Z",
      "apogee_km": 551.448401267925,
      "perigee_km": 547.5758454079796,
      "latitude_deg": 2.22153972646137e-05,
      "longitude_deg": -93.99978181559098,
      "height_km": 552.2629955930847,
      "semi_major_axis_km": 6927.649123337952,
      "eccentricity": 0.0002795,
      "inclination_deg": 97.6034,
      "raan_deg": 333.9525,
      "arg_perigee_deg": 80.7998,
      "mean_anomaly_deg": 279.3545,
      "mean_motion_rev_day": 15.05649684
    },
    {
      "epoch": "2026-04-13T05:29:12.405120Z",
      "apogee_km": 551.4770926994406,
      "perigee_km": 547.5214123992346,
      "latitude_deg": -5.763414310931501e-06,
      "longitude_deg": 51.800109614064326,
      "height_km": 552.1920606123952,
      "semi_major_axis_km": 6927.636252549338,
      "eccentricity": 0.0002855,
      "inclination_deg": 97.6044,
      "raan_deg": 335.5242,
      "arg_perigee_deg": 79.2909,
      "mean_anomaly_deg": 280.8639,
      "mean_motion_rev_day": 15.0565388
    },
    {
      "epoch": "2026-04-14T21:21:42.619968Z",
      "apogee_km": 551.4515510477449,
      "perigee_km": 547.5762231415038,
      "latitude_deg": -1.4021510553731186e-05,
      "longitude_deg": 173.674306796489,
      "height_km": 552.1727585150807,
      "semi_major_axis_km": 6927.650887094624,
      "eccentricity": 0.0002797,
      "inclination_deg": 97.6033,
      "raan_deg": 337.1619,
      "arg_perigee_deg": 78.0378,
      "mean_anomaly_deg": 282.1162,
      "mean_motion_rev_day": 15.05649109
    },
    {
      "epoch": "2026-04-15T21:17:12.717600Z",
      "apogee_km": 551.3583804108912,
      "perigee_km": 547.663173086773,
      "latitude_deg": -1.0546805019972802e-05,
      "longitude_deg": 174.79893552698962,
      "height_km": 552.1491336628638,
      "semi_major_axis_km": 6927.647776748831,
      "eccentricity": 0.0002667,
      "inclination_deg": 97.6033,
      "raan_deg": 338.1445,
      "arg_perigee_deg": 76.7847,
      "mean_anomaly_deg": 283.3677,
      "mean_motion_rev_day": 15.05650123
    },
    {
      "epoch": "2026-04-16T21:12:42.669216Z",
      "apogee_km": 551.3178600883011,
      "perigee_km": 547.6780806748638,
      "latitude_deg": -3.581406491547364e-05,
      "longitude_deg": 175.9243780949615,
      "height_km": 552.1111120524994,
      "semi_major_axis_km": 6927.634970381582,
      "eccentricity": 0.0002627,
      "inclination_deg": 97.6039,
      "raan_deg": 339.1273,
      "arg_perigee_deg": 75.7596,
      "mean_anomaly_deg": 284.3922,
      "mean_motion_rev_day": 15.05654298
    },
    {
      "epoch": "2026-04-17T21:08:12.536160Z",
      "apogee_km": 551.2524032157626,
      "perigee_km": 547.7225014523201,
      "latitude_deg": 6.229117889228089e-05,
      "longitude_deg": 177.04995739083535,
      "height_km": 552.0655479396696,
      "semi_major_axis_km": 6927.624452334041,
      "eccentricity": 0.00025477,
      "inclination_deg": 97.6037,
      "raan_deg": 340.1099,
      "arg_perigee_deg": 74.1216,
      "mean_anomaly_deg": 286.0292,
      "mean_motion_rev_day": 15.05657727
    },
    {
      "epoch": "2026-04-18T21:03:42.444576Z",
      "apogee_km": 551.2186124906966,
      "perigee_km": 547.7672672546523,
      "latitude_deg": 1.034354633987537e-05,
      "longitude_deg": 178.1753822270361,
      "height_km": 552.0566021417452,
      "semi_major_axis_km": 6927.629939872674,
      "eccentricity": 0.0002491,
      "inclination_deg": 97.6038,
      "raan_deg": 341.0925,
      "arg_perigee_deg": 73.2464,
      "mean_anomaly_deg": 286.9036,
      "mean_motion_rev_day": 15.05655938
    },
    {
      "epoch": "2026-04-19T14:36:24.450048Z",
      "apogee_km": 551.3139357347472,
      "perigee_km": 547.6935506823456,
      "latitude_deg": 2.5696921801567013e-05,
      "longitude_deg": -85.00059098602823,
      "height_km": 552.195570489842,
      "semi_major_axis_km": 6927.640743208546,
      "eccentricity": 0.0002613,
      "inclination_deg": 97.6025,
      "raan_deg": 341.8121,
      "arg_perigee_deg": 78.2376,
      "mean_anomaly_deg": 281.9144,
      "mean_motion_rev_day": 15.05652416
    },
    {
      "epoch": "2026-04-20T14:31:54.673824Z",
      "apogee_km": 551.1300322054458,
      "perigee_km": 547.8657306493178,
      "latitude_deg": -5.244676620662313e-05,
      "longitude_deg": -83.87688223659282,
      "height_km": 552.3126089746122,
      "semi_major_axis_km": 6927.6348814273815,
      "eccentricity": 0.0002356,
      "inclination_deg": 97.5988,
      "raan_deg": 342.7943,
      "arg_perigee_deg": 81.3071,
      "mean_anomaly_deg": 278.8422,
      "mean_motion_rev_day": 15.05654327
    },
    {
      "epoch": "2026-04-21T09:40:21.084384Z",
      "apogee_km": 552.7492784827446,
      "perigee_km": 546.4177575924905,
      "latitude_deg": -4.116837826754297e-05,
      "longitude_deg": -10.987309029869913,
      "height_km": 551.6622965241128,
      "semi_major_axis_km": 6927.720518037618,
      "eccentricity": 0.00045697,
      "inclination_deg": 97.5976,
      "raan_deg": 343.58,
      "arg_perigee_deg": 71.9948,
      "mean_anomaly_deg": 288.1776,
      "mean_motion_rev_day": 15.05626409
    },
    {
      "epoch": "2026-04-22T12:47:13.983072Z",
      "apogee_km": 550.8909450259034,
      "perigee_km": 548.0603225037466,
      "latitude_deg": -7.36671698331534e-05,
      "longitude_deg": -57.71137969733693,
      "height_km": 552.149160569483,
      "semi_major_axis_km": 6927.612633764825,
      "eccentricity": 0.0002043,
      "inclination_deg": 97.5948,
      "raan_deg": 344.6899,
      "arg_perigee_deg": 74.0625,
      "mean_anomaly_deg": 286.0826,
      "mean_motion_rev_day": 15.0566158
    },
    {
      "epoch": "2026-04-23T01:32:49.452000Z",
      "apogee_km": 550.5762881229448,
      "perigee_km": 548.348649237796,
      "latitude_deg": 5.2870866831449495e-05,
      "longitude_deg": 110.88908655463355,
      "height_km": 552.3438196599593,
      "semi_major_axis_km": 6927.59946868037,
      "eccentricity": 0.00016078,
      "inclination_deg": 97.5924,
      "raan_deg": 345.2122,
      "arg_perigee_deg": 80.6186,
      "mean_anomaly_deg": 279.5223,
      "mean_motion_rev_day": 15.05665872
    },
    {
      "epoch": "2026-04-24T12:38:12.782976Z",
      "apogee_km": 552.1867796127863,
      "perigee_km": 546.6835162984498,
      "latitude_deg": -6.689279614497561e-05,
      "longitude_deg": -55.46039958834281,
      "height_km": 551.1412559131152,
      "semi_major_axis_km": 6927.572147955618,
      "eccentricity": 0.0003972,
      "inclination_deg": 97.5741,
      "raan_deg": 346.651,
      "arg_perigee_deg": 60.5307,
      "mean_anomaly_deg": 299.6315,
      "mean_motion_rev_day": 15.05674779
    },
    {
      "epoch": "2026-04-25T15:45:06.194016Z",
      "apogee_km": 551.0774871191325,
      "perigee_km": 547.9198707766682,
      "latitude_deg": 4.102910495719445e-05,
      "longitude_deg": -102.18502708856319,
      "height_km": 551.7016481853157,
      "semi_major_axis_km": 6927.6356789479,
      "eccentricity": 0.0002279,
      "inclination_deg": 97.5764,
      "raan_deg": 347.7625,
      "arg_perigee_deg": 57.0085,
      "mean_anomaly_deg": 303.1361,
      "mean_motion_rev_day": 15.05654067
    },
    {
      "epoch": "2026-04-26T15:40:36.319296Z",
      "apogee_km": 551.3035329632485,
      "perigee_km": 547.690217686556,
      "latitude_deg": 8.965600067803811e-06,
      "longitude_deg": -101.06841076820201,
      "height_km": 552.0603465252761,
      "semi_major_axis_km": 6927.633875324902,
      "eccentricity": 0.00026079,
      "inclination_deg": 97.5681,
      "raan_deg": 348.7372,
      "arg_perigee_deg": 73.9848,
      "mean_anomaly_deg": 286.1666,
      "mean_motion_rev_day": 15.05654655
    },
    {
      "epoch": "2026-04-27T15:36:06.657120Z",
      "apogee_km": 551.4095496690225,
      "perigee_km": 547.6048874641856,
      "latitude_deg": 3.167214981763631e-05,
      "longitude_deg": -99.94898932997832,
      "height_km": 551.9244319931262,
      "semi_major_axis_km": 6927.644218566604,
      "eccentricity": 0.0002746,
      "inclination_deg": 97.5652,
      "raan_deg": 349.7156,
      "arg_perigee_deg": 70.1932,
      "mean_anomaly_deg": 289.9591,
      "mean_motion_rev_day": 15.05651283
    },
    {
      "epoch": "2026-04-28T15:31:36.818688Z",
      "apogee_km": 551.3547533965138,
      "perigee_km": 547.6456964262961,
      "latitude_deg": -3.5456896528725045e-07,
      "longitude_deg": -98.82962423300529,
      "height_km": 552.1296160641201,
      "semi_major_axis_km": 6927.637224911405,
      "eccentricity": 0.0002677,
      "inclination_deg": 97.5609,
      "raan_deg": 350.6932,
      "arg_perigee_deg": 76.5115,
      "mean_anomaly_deg": 283.641,
      "mean_motion_rev_day": 15.05653563
    },
    {
      "epoch": "2026-04-29T15:27:06.904224Z",
      "apogee_km": 551.3180075334285,
      "perigee_km": 547.6851538617102,
      "latitude_deg": -6.1837546035798e-05,
      "longitude_deg": -97.71383792027824,
      "height_km": 552.2152819130417,
      "semi_major_axis_km": 6927.638580697569,
      "eccentricity": 0.0002622,
      "inclination_deg": 97.5555,
      "raan_deg": 351.6669,
      "arg_perigee_deg": 78.9387,
      "mean_anomaly_deg": 281.2134,
      "mean_motion_rev_day": 15.05653121
    },
    {
      "epoch": "2026-04-30T13:46:54.877728Z",
      "apogee_km": 551.3478186756192,
      "perigee_km": 547.6584346497648,
      "latitude_deg": 2.480593466264213e-06,
      "longitude_deg": -72.66939639404855,
      "height_km": 552.0355576875471,
      "semi_major_axis_km": 6927.640126662692,
      "eccentricity": 0.00026628,
      "inclination_deg": 97.5533,
      "raan_deg": 352.5783,
      "arg_perigee_deg": 73.3087,
      "mean_anomaly_deg": 286.8432,
      "mean_motion_rev_day": 15.05652617
    }
  ]
}